#aV2013  9 19  0  0  0.00000000     288 DD+AD WGS84 FIT  NGA
## 1758 345600.00000000   300.00000000 56554 0.0000000000000
+   31     1  2  3  4  5  6  7  8  9 10 11 12 13 14 15 16 17
+         18 19 20 21 22 23 24 25 26 27 28 29 31 32  0  0  0
+          0  0  0  0  0  0  0  0  0  0  0  0  0  0  0  0  0
+          0  0  0  0  0  0  0  0  0  0  0  0  0  0  0  0  0
+          0  0  0  0  0  0  0  0  0  0  0  0  0  0  0  0  0
++         2  2  2  2  2  2  2  2  2  2  2  2  2  2  2  2  2
++         2  2  2  2  2  2  2  2  2  2  2  2  2  2  2  0  0
++         0  0  0  0  0  0  0  0  0  0  0  0  0  0  0  0  0
++         0  0  0  0  0  0  0  0  0  0  0  0  0  0  0  0  0
++         0  0  0  0  0  0  0  0  0  0  0  0  0  0  0  0  0
%c cc cc ccc ccc cccc cccc cccc cccc ccccc ccccc ccccc ccccc
%c cc cc ccc ccc cccc cccc cccc cccc ccccc ccccc ccccc ccccc
%f  0.0000000  0.000000000  0.00000000000  0.000000000000000
%f  0.0000000  0.000000000  0.00000000000  0.000000000000000
%i    0    0    0    0      0      0      0      0         0
%i    0    0    0    0      0      0      0      0         0
/*      NGA, ST. LOUIS,MO.                                  
/*   EPHEMERIS COMPUTED FROM  1 DAYS OF DATA
/*   EPOCHA SMOOTHER  
/* CCCCCCCCCCCCCCCCCCCCCCCCCCCCCCCCCCCCCCCCCCCCCCCCCCCCCCCCC
*  2013  9 19 22 55  0.00000000                                                 
P  1   8122.870592  13872.183304 -21188.492134     76.556249                    
V  1 -26514.023637   4080.823069  -7399.874240      0.040541                    
P  2  16475.553903 -13937.422588  15371.817106    452.111635                    
V  2  19566.495637   -299.971643 -22069.771323      0.017557                    
P  3  -7909.418339  25103.728009   2147.083232    261.742914                    
V  3  -2876.379991  -4213.109147  31143.227605      0.050523                    
P  4  25490.004418  -6599.982948   4141.428273      0.923262                    
V  4   5996.235244   2472.117711 -30493.754473      0.006384                    
P  5   5306.336037 -16572.438392  19996.707916   -399.575825                    
V  5  16658.012780  19399.965957  11789.694807      0.001517                    
P  6 -13497.738812  21093.860032   8310.120681     62.207566                    
V  6    123.161108 -11156.169408  29101.649291      0.188754                    
P  7  22178.479972   6640.620383  13362.992070    260.496986                    
V  7 -16436.754034   3481.745993  25347.264559      0.042111                    
P  8  26707.324545   1459.595483   2977.227870      8.550671                    
V  8  -3523.492767   1147.308382  31862.881787      0.002725                    
P  9  26380.524461  -1778.937457   2622.119163    269.668750                    
V  9  -3663.226999   2522.541140  31948.104463      0.027288                    
P 10  17722.352813    -15.779915  19597.943404    -95.109870                    
V 10  14282.371454  21151.151179 -12284.826822     -0.015835                    
P 11    984.889268  17647.050689 -20248.981339   -421.248612                    
V 11 -23280.669620   9402.681783   7486.685249     -0.035232                    
P 12  -9446.579649 -23305.192404  -8917.814875    157.332846                    
V 12   7887.091686   8083.971483 -29439.896642      0.022059                    
P 13  10153.053846  11568.437159  21496.021474     78.278322                    
V 13 -13529.650363  24027.756715  -6638.917752     -0.038118                    
P 14 -17662.894464   8342.209592 -17707.615591    215.374523                    
V 14   8847.055815 -21233.597434 -18747.371801     -0.009065                    
P 15    971.438914 -24277.937224 -10434.955195   -137.921890                    
V 15   7747.108419 -11341.834134  27444.178289     -0.018730                    
P 16  -5635.201750  15746.928229  20512.833035   -246.354749                    
V 16 -15603.926506 -20995.583194  12137.482963      0.008218                    
P 17  17312.238004  -6762.432681 -18656.591911    -23.007592                    
V 17  -8734.758784  22652.485989 -16355.597951     -0.038794                    
P 18 -20150.116049 -14640.942206  -9269.065829    274.994390                    
V 18  -4920.834225 -11769.939894  27668.303321      0.020127                    
P 19  -6415.320951  24282.811480  -8058.419629   -405.406652                    
V 19  -7276.734838   7691.913251  29806.200751     -0.028178                    
P 20  14093.227573  22037.999595  -5003.043675    123.598701                    
V 20  -6793.947676  -2261.816052 -30093.308364      0.026228                    
P 21 -24163.254018  -4997.904683  11050.108831   -319.524325                    
V 21  12579.298560  -4400.081189  26454.814424     -0.019062                    
P 22 -19309.624820  -2998.691008 -17849.592727    185.594715                    
V 22 -12486.686009 -19596.587152  16465.471419      0.018569                    
P 23   4263.434050  20128.963966  16656.740336     46.654827                    
V 23 -10280.866878  18622.980811 -20381.828275     -0.034657                    
P 24  -3494.560156 -14902.234136 -21713.617133    -14.050172                    
V 24  27270.030500  -4008.710030  -1589.296217     -0.007262                    
P 25 -18004.712254 -19281.504910   3457.814227    149.081601                    
V 25   -926.097526  -4914.717306 -31584.262688      0.040852                    
P 26  12778.306724 -23035.734889    809.476711    198.291478                    
V 26   1446.608060   2813.391480  32313.842946      0.184608                    
P 27 -12542.578101  23031.087340   4155.200732    -38.531237                    
V 27   -581.105821  -5954.152507  31173.952257     -0.044950                    
P 28  18746.654201   8021.101478 -16526.428861    293.947858                    
V 28  11202.193720  18984.802761  21012.968449      0.030927                    
P 29  -8738.843633 -14577.241869  20458.333045    472.048420                    
V 29  11850.850372 -23005.756943 -11313.472984      0.031228                    
P 31 -24970.815112   7047.563142   6513.428720    326.229752                    
V 31  -8116.962977   -994.801612 -30575.649266      0.007831                    
P 32   4639.062571  23370.577582 -12164.243015   -547.460515                    
V 32 -10268.899172 -11764.050067 -25750.210768      0.029549                    
EOF
